{
  "type": "FeatureCollection",
  "features": [
    {
      "type": "Feature",
      "properties": {
        "norad_id": 66390,
        "name": "STARLINK-35665",
        "group": "last-30-days",
        "lat": 45.943289944591214,
        "lon": -20.935654977820004,
        "alt_km": 410.9442365752202,
        "timestamp": "2025-12-07T14:37:03.992485+00:00",
        "meta_object_name": "STARLINK-35665",
        "meta_object_id": "2025-257L",
        "meta_epoch": "2025-12-06T04:17:12.780096",
        "meta_mean_motion": 15.49341653,
        "meta_eccentricity": 0.00011183,
        "meta_inclination": 53.1591,
        "meta_ra_of_asc_node": 295.1167,
        "meta_arg_of_pericenter": 82.6759,
        "meta_mean_anomaly": 277.4377,
        "meta_ephemeris_type": 0,
        "meta_classification_type": "U",
        "meta_norad_cat_id": 66390,
        "meta_element_set_no": 999,
        "meta_rev_at_epoch": 546,
        "meta_bstar": 0.0018780257,
        "meta_mean_motion_dot": 0.00105543,
        "meta_mean_motion_ddot": 0,
        "tle_line1": "1 66390U 25257L   25340.17862014  .00105543  00000+0  18780-2 0  9991",
        "tle_line2": "2 66390  53.1591 295.1167 0001118  82.6759 277.4377 15.49341653  5462"
      },
      "geometry": {
        "type": "Point",
        "coordinates": [
          -20.935654977820004,
          45.943289944591214
        ]
      }
    },
    {
      "type": "Feature",
      "properties": {
        "norad_id": 66391,
        "name": "STARLINK-35656",
        "group": "last-30-days",
        "lat": -47.47928640974462,
        "lon": -126.31882374908801,
        "alt_km": 444.03256060794956,
        "timestamp": "2025-12-07T14:37:03.992497+00:00",
        "meta_object_name": "STARLINK-35656",
        "meta_object_id": "2025-257M",
        "meta_epoch": "2025-12-05T03:46:18.556608",
        "meta_mean_motion": 15.40317588,
        "meta_eccentricity": 9.833e-05,
        "meta_inclination": 53.1603,
        "meta_ra_of_asc_node": 300.1096,
        "meta_arg_of_pericenter": 171.4639,
        "meta_mean_anomaly": 188.6383,
        "meta_ephemeris_type": 0,
        "meta_classification_type": "U",
        "meta_norad_cat_id": 66391,
        "meta_element_set_no": 999,
        "meta_rev_at_epoch": 530,
        "meta_bstar": 0.0098522303,
        "meta_mean_motion_dot": 0.00426205,
        "meta_mean_motion_ddot": 0,
        "tle_line1": "1 66391U 25257M   25339.15715922  .00426205  00000+0  98522-2 0  9996",
        "tle_line2": "2 66391  53.1603 300.1096 0000983 171.4639 188.6383 15.40317588  5302"
      },
      "geometry": {
        "type": "Point",
        "coordinates": [
          -126.31882374908801,
          -47.47928640974462
        ]
      }
    },
    {
      "type": "Feature",
      "properties": {
        "norad_id": 66392,
        "name": "STARLINK-35671",
        "group": "last-30-days",
        "lat": -49.996091962653445,
        "lon": 171.9147407372175,
        "alt_km": 453.0845944840412,
        "timestamp": "2025-12-07T14:37:03.992508+00:00",
        "meta_object_name": "STARLINK-35671",
        "meta_object_id": "2025-257N",
        "meta_epoch": "2025-12-07T00:00:02.000160",
        "meta_mean_motion": 15.39582198,
        "meta_eccentricity": 0.00017703,
        "meta_inclination": 53.1604,
        "meta_ra_of_asc_node": 291.4892,
        "meta_arg_of_pericenter": 99.119,
        "meta_mean_anomaly": 16.457,
        "meta_ephemeris_type": 0,
        "meta_classification_type": "U",
        "meta_norad_cat_id": 66392,
        "meta_element_set_no": 999,
        "meta_rev_at_epoch": 557,
        "meta_bstar": 0.00049502602,
        "meta_mean_motion_dot": 0.00019427,
        "meta_mean_motion_ddot": 0,
        "tle_line1": "1 66392U 25257N   25341.00002315  .00019427  00000+0  49503-3 0  9999",
        "tle_line2": "2 66392  53.1604 291.4892 0001770  99.1190  16.4570 15.39582198  5577"
      },
      "geometry": {
        "type": "Point",
        "coordinates": [
          171.9147407372175,
          -49.996091962653445
        ]
      }
    },
    {
      "type": "Feature",
      "properties": {
        "norad_id": 66393,
        "name": "STARLINK-35652",
        "group": "last-30-days",
        "lat": -42.28546339137994,
        "lon": -114.47052879805372,
        "alt_km": 452.7727193122337,
        "timestamp": "2025-12-07T14:37:03.992521+00:00",
        "meta_object_name": "STARLINK-35652",
        "meta_object_id": "2025-257P",
        "meta_epoch": "2025-12-07T00:00:02.000160",
        "meta_mean_motion": 15.3959421,
        "meta_eccentricity": 0.00016887,
        "meta_inclination": 53.1588,
        "meta_ra_of_asc_node": 291.3902,
        "meta_arg_of_pericenter": 100.1427,
        "meta_mean_anomaly": 65.0577,
        "meta_ephemeris_type": 0,
        "meta_classification_type": "U",
        "meta_norad_cat_id": 66393,
        "meta_element_set_no": 999,
        "meta_rev_at_epoch": 557,
        "meta_bstar": 0.00063549801,
        "meta_mean_motion_dot": 0.00025082,
        "meta_mean_motion_ddot": 0,
        "tle_line1": "1 66393U 25257P   25341.00002315  .00025082  00000+0  63550-3 0  9992",
        "tle_line2": "2 66393  53.1588 291.3902 0001688 100.1427  65.0577 15.39594210  5579"
      },
      "geometry": {
        "type": "Point",
        "coordinates": [
          -114.47052879805372,
          -42.28546339137994
        ]
      }
    },
    {
      "type": "Feature",
      "properties": {
        "norad_id": 66394,
        "name": "STARLINK-35672",
        "group": "last-30-days",
        "lat": -41.19258980480526,
        "lon": -112.49447709485301,
        "alt_km": 452.3955234870773,
        "timestamp": "2025-12-07T14:37:03.992532+00:00",
        "meta_object_name": "STARLINK-35672",
        "meta_object_id": "2025-257Q",
        "meta_epoch": "2025-12-07T00:00:02.000160",
        "meta_mean_motion": 15.3958678,
        "meta_eccentricity": 0.00013109,
        "meta_inclination": 53.159,
        "meta_ra_of_asc_node": 291.3853,
        "meta_arg_of_pericenter": 86.7183,
        "meta_mean_anomaly": 80.3416,
        "meta_ephemeris_type": 0,
        "meta_classification_type": "U",
        "meta_norad_cat_id": 66394,
        "meta_element_set_no": 999,
        "meta_rev_at_epoch": 557,
        "meta_bstar": 0.00063191429,
        "meta_mean_motion_dot": 0.00024932,
        "meta_mean_motion_ddot": 0,
        "tle_line1": "1 66394U 25257Q   25341.00002315  .00024932  00000+0  63191-3 0  9997",
        "tle_line2": "2 66394  53.1590 291.3853 0001310  86.7183  80.3416 15.39586780  5573"
      },
      "geometry": {
        "type": "Point",
        "coordinates": [
          -112.49447709485301,
          -41.19258980480526
        ]
      }
    },
    {
      "type": "Feature",
      "properties": {
        "norad_id": 66395,
        "name": "STARLINK-35681",
        "group": "last-30-days",
        "lat": -24.71013267948556,
        "lon": -91.71356435805221,
        "alt_km": 451.2593141622001,
        "timestamp": "2025-12-07T14:37:03.992543+00:00",
        "meta_object_name": "STARLINK-35681",
        "meta_object_id": "2025-257R",
        "meta_epoch": "2025-12-07T00:00:02.000160",
        "meta_mean_motion": 15.39584243,
        "meta_eccentricity": 9.831e-05,
        "meta_inclination": 53.159,
        "meta_ra_of_asc_node": 291.3391,
        "meta_arg_of_pericenter": 111.0307,
        "meta_mean_anomaly": 79.9626,
        "meta_ephemeris_type": 0,
        "meta_classification_type": "U",
        "meta_norad_cat_id": 66395,
        "meta_element_set_no": 999,
        "meta_rev_at_epoch": 541,
        "meta_bstar": 0.00064038983,
        "meta_mean_motion_dot": 0.0002527,
        "meta_mean_motion_ddot": 0,
        "tle_line1": "1 66395U 25257R   25341.00002315  .00025270  00000+0  64039-3 0  9996",
        "tle_line2": "2 66395  53.1590 291.3391 0000983 111.0307  79.9626 15.39584243  5418"
      },
      "geometry": {
        "type": "Point",
        "coordinates": [
          -91.71356435805221,
          -24.71013267948556
        ]
      }
    },
    {
      "type": "Feature",
      "properties": {
        "norad_id": 66396,
        "name": "STARLINK-35669",
        "group": "last-30-days",
        "lat": -20.006775333888495,
        "lon": -87.38792996441389,
        "alt_km": 448.52278488763204,
        "timestamp": "2025-12-07T14:37:03.992555+00:00",
        "meta_object_name": "STARLINK-35669",
        "meta_object_id": "2025-257S",
        "meta_epoch": "2025-12-06T10:42:24.997824",
        "meta_mean_motion": 15.41403354,
        "meta_eccentricity": 0.00010154,
        "meta_inclination": 53.159,
        "meta_ra_of_asc_node": 293.9458,
        "meta_arg_of_pericenter": 86.044,
        "meta_mean_anomaly": 274.0681,
        "meta_ephemeris_type": 0,
        "meta_classification_type": "U",
        "meta_norad_cat_id": 66396,
        "meta_element_set_no": 999,
        "meta_rev_at_epoch": 540,
        "meta_bstar": -0.010984425,
        "meta_mean_motion_dot": -0.00440633,
        "meta_mean_motion_ddot": 0,
        "tle_line1": "1 66396U 25257S   25340.44612266 -.00440633  00000+0 -10984-1 0  9990",
        "tle_line2": "2 66396  53.1590 293.9458 0001015  86.0440 274.0681 15.41403354  5401"
      },
      "geometry": {
        "type": "Point",
        "coordinates": [
          -87.38792996441389,
          -20.006775333888495
        ]
      }
    }
  ]
}